[{"OBJECT_NAME":"STARLINK-31049","OBJECT_ID":"2023-192N","EPOCH":"2026-03-09T22:56:08.091744","MEAN_MOTION":15.30186381,"ECCENTRICITY":0.00012661,"INCLINATION":53.1615,"RA_OF_ASC_NODE":61.6761,"ARG_OF_PERICENTER":96.3479,"MEAN_ANOMALY":263.7666,"EPHEMERIS_TYPE":0,"CLASSIFICATION_TYPE":"U","NORAD_CAT_ID":58543,"ELEMENT_SET_NO":999,"REV_AT_EPOCH":12602,"BSTAR":3.008332e-5,"MEAN_MOTION_DOT":5.32e-6,"MEAN_MOTION_DDOT":0},{"OBJECT_NAME":"CZ-6A DEB","OBJECT_ID":"2022-151EM","EPOCH":"2026-03-09T21:12:10.844640","MEAN_MOTION":15.1479521,"ECCENTRICITY":0.00732342,"INCLINATION":98.809,"RA_OF_ASC_NODE":212.6624,"ARG_OF_PERICENTER":10.5605,"MEAN_ANOMALY":349.714,"EPHEMERIS_TYPE":0,"CLASSIFICATION_TYPE":"U","NORAD_CAT_ID":54413,"ELEMENT_SET_NO":999,"REV_AT_EPOCH":17915,"BSTAR":0.0020661814,"MEAN_MOTION_DOT":0.00041137,"MEAN_MOTION_DDOT":0}]
